[{"OBJECT_NAME":"TISAT 1","OBJECT_ID":"2010-035E","EPOCH":"2026-03-09T18:10:07.877568","MEAN_MOTION":15.27628633,"ECCENTRICITY":0.00013432,"INCLINATION":98.0645,"RA_OF_ASC_NODE":6.8512,"ARG_OF_PERICENTER":159.303,"MEAN_ANOMALY":200.8262,"EPHEMERIS_TYPE":0,"CLASSIFICATION_TYPE":"U","NORAD_CAT_ID":36799,"ELEMENT_SET_NO":999,"REV_AT_EPOCH":85250,"BSTAR":0.00091004793,"MEAN_MOTION_DOT":0.00024554,"MEAN_MOTION_DDOT":0},{"OBJECT_NAME":"STARLINK-34002","OBJECT_ID":"2025-093W","EPOCH":"2026-03-09T09:02:34.056384","MEAN_MOTION":15.27581665,"ECCENTRICITY":7.143e-5,"INCLINATION":42.9989,"RA_OF_ASC_NODE":79.7039,"ARG_OF_PERICENTER":287.335,"MEAN_ANOMALY":72.7424,"EPHEMERIS_TYPE":0,"CLASSIFICATION_TYPE":"U","NORAD_CAT_ID":63856,"ELEMENT_SET_NO":999,"REV_AT_EPOCH":4770,"BSTAR":0.0012357867,"MEAN_MOTION_DOT":0.00033902,"MEAN_MOTION_DDOT":0}]
