TISAT 1                 
1 36799U 10035E   26068.75703561  .00024554  00000+0  91005-3 0  9996
2 36799  98.0645   6.8512 0001343 159.3030 200.8262 15.27628633852505
STARLINK-34002          
1 63856U 25093W   26068.37678306  .00033902  00000+0  12358-2 0  9996
2 63856  42.9989  79.7039 0000714 287.3350  72.7424 15.27581665 47706
